CCSDS_OEM_VERS = 2.0  
CREATION_DATE  = 2023-05-23T14:48:49
ORIGINATOR     = ESOC/OPS-GFA                            
 
 



META_START
OBJECT_NAME          = LISA                                    
OBJECT_ID            = -1000                                   
CENTER_NAME          = SUN                     
REF_FRAME            = EME2000 
TIME_SYSTEM          = TDB
START_TIME           = 2036-02-12T12:00:00.00000000            
STOP_TIME            = 2046-11-13T01:04:47.99999985            
INTERPOLATION        = HERMITE                                 
INTERPOLATION_DEGREE = 7                                       
META_STOP

2038-01-10T04:30:01.60814183   -93465012.002905   107456807.303771    47597006.049542 -23.1684418 -16.9482176  -7.5275363     0.000003663640    -0.000004211860    -0.000001865608
2038-01-13T13:03:02.38563215  -100025702.178361   102367781.097702    45336933.242566 -22.0681616 -18.1413087  -8.0559722     0.000003922987    -0.000004014625    -0.000001778012
2038-01-16T21:36:03.16312246  -106256600.451010    96941263.065972    42927390.846461 -20.8944697 -19.2752565  -8.5581437     0.000004169821    -0.000003804052    -0.000001684508
2038-01-20T06:09:03.94061293  -112136956.991596    91194955.762784    40376239.571925 -19.6511145 -20.3462853  -9.0323785     0.000004403321    -0.000003580784    -0.000001585382
2038-01-23T14:42:04.71810324  -117647141.940340    85147628.537920    37691812.555471 -18.3420775 -21.3508125  -9.4770904     0.000004622703    -0.000003345507    -0.000001480939
2038-01-26T23:30:01.36774691  -122783915.823795    78799094.419402    34874028.642286 -16.9672366 -22.2882362  -9.8920122     0.000004827830    -0.000003098170    -0.000001371157
2038-01-30T08:17:58.01739058  -127512321.081056    72188501.058436    31940265.212779 -15.5349902 -23.1521575 -10.2743113     0.000005017295    -0.000002840255    -0.000001256692
2038-02-02T17:05:54.66703440  -131816332.372329    65337664.840339    28900204.551818 -14.0499917 -23.9396168 -10.6226778     0.000005190435    -0.000002572573    -0.000001137905
2038-02-06T01:53:51.31667807  -135681304.071513    58269228.122137    25763894.446159 -12.5170800 -24.6478952 -10.9359087     0.000005346637    -0.000002295971    -0.000001015172
2038-02-09T11:10:50.50591237  -139113081.791962    50962542.926385    22522176.205677 -10.9317062 -25.2780289 -11.2144610     0.000005486113    -0.000002009601    -0.000000888117
2038-02-12T20:27:49.69514667  -142075235.603635    43483835.020076    19204434.750511  -9.3081745 -25.8232881 -11.4553583     0.000005607358    -0.000001716025    -0.000000757877
2038-02-16T05:44:48.88438112  -144557387.655174    35858235.312504    15821819.020287  -7.6518891 -26.2817032 -11.6577303     0.000005709907    -0.000001416200    -0.000000624876
2038-02-19T15:01:48.07361542  -146550759.197591    28111409.687829    12385714.306701  -5.9683808 -26.6515893 -11.8208328     0.000005793358    -0.000001111111    -0.000000489551
2038-02-22T23:53:37.62671443  -148041764.937519    20310130.346942     8925735.494828  -4.2721325 -26.9303416 -11.9435187     0.000005857087    -0.000000803373    -0.000000353061
2038-02-26T08:45:27.17981327  -149036550.865362    12440791.938486     5435846.519321  -2.5601668 -27.1190180 -12.0262553     0.000005901299    -0.000000492437    -0.000000215165
2038-03-01T17:37:16.73291228  -149531372.237415     4529737.232987     1927730.097058  -0.8381981 -27.2168378 -12.0686997     0.000005925781    -0.000000179336    -0.000000076319
2038-03-05T02:29:06.28601128  -149524154.680826    -3396507.216860    -1586850.464754   0.8880073 -27.2233222 -12.0706425     0.000005930387     0.000000134885     0.000000063013
2038-03-08T10:58:37.88623002  -149017999.264132   -11275010.234819    -5079992.440474   2.6047354 -27.1388986 -12.0322808     0.000005915150     0.000000447728     0.000000201723
2038-03-11T19:28:09.48644861  -148015301.337067   -19115925.459257    -8556199.337661   4.3141809 -26.9639395 -11.9537785     0.000005880125     0.000000759586     0.000000339986
2038-03-15T03:57:41.08666735  -146519001.928529   -26893074.520478   -12003864.943686   6.0106156 -26.6988825 -11.8353328     0.000005825365     0.000001069407     0.000000477334
2038-03-18T12:27:12.68688609  -144533697.666116   -34580449.525706   -15411459.531094   7.6883371 -26.3444706 -11.6772761     0.000005750992     0.000001376138     0.000000613302
2038-03-21T21:00:46.72793205  -142063367.599905   -42158582.133844   -18770352.747913   9.3430592 -25.9013436 -11.4798945     0.000005657109     0.000001678984     0.000000747537
2038-03-25T05:34:20.76897802  -139117363.077804   -49595534.787061   -22066388.155706  10.9677629 -25.3711140 -11.2439068     0.000005544028     0.000001976644     0.000000879462
2038-03-28T14:07:54.81002398  -135705193.226627   -56866279.404104   -25288473.139753  12.5569264 -24.7554356 -10.9700493     0.000005412076     0.000002268086     0.000001008620
2038-03-31T22:41:28.85106995  -131837952.964542   -63946309.924880   -28425747.412410  14.1051329 -24.0562594 -10.6591899     0.000005261650     0.000002552296     0.000001134561
2038-04-04T07:21:48.55369897  -127521959.826630   -70821171.165246   -31471804.774647  15.6091560 -23.2746801 -10.3118160     0.000005092964     0.000002828658     0.000001257012
2038-04-07T16:02:08.25632783  -122776530.862046   -77457517.952013   -34411870.022367  17.0616299 -22.4141565  -9.9294650     0.000004906747     0.000003095793     0.000001375362
2038-04-11T00:42:27.95895685  -117617368.412807   -83832826.239876   -37235964.207486  18.4575484 -21.4775068  -9.5133893     0.000004703596     0.000003352752     0.000001489191
2038-04-14T09:22:47.66158586  -112061601.999481   -89925429.025019   -39934489.176268  19.7920880 -20.4678201  -9.0649613     0.000004484171     0.000003598619     0.000001598092
2038-04-17T18:05:20.38908474  -106124932.260552   -95717174.739799   -42499404.787534  21.0611911 -19.3879367  -8.5854427     0.000004249084     0.000003832616     0.000001701723
2038-04-21T02:47:53.11658363   -99829655.026992  -101185457.760013   -44920699.488191  22.2598219 -18.2419085  -8.0766327     0.000003999215     0.000004053786     0.000001799657
2038-04-24T11:30:25.84408251   -93196858.749477  -106311612.832413   -47190108.278618  23.3838061 -17.0335799  -7.5402384     0.000003735404     0.000004261327     0.000001891541
2038-04-27T20:12:58.57158139   -86248808.035992  -111078123.759811   -49299876.301009  24.4292220 -15.7670213  -6.9780665     0.000003458547     0.000004454486     0.000001977040
2038-05-01T05:04:54.49465031   -78994567.494089  -115476824.740139   -51246387.632673  25.3941997 -14.4439057  -6.3908602     0.000003169018     0.000004632890     0.000002055990
2038-05-04T13:56:50.41771938   -71471836.136264  -119483006.794487   -53018706.403676  26.2732435 -13.0711385  -5.7816842     0.000002868342     0.000004795494     0.000002127928
2038-05-07T22:48:46.34078830   -63706088.588882  -123082894.179164   -54610738.056359  27.0632589 -11.6534076  -5.1526188     0.000002557561     0.000004941701     0.000002192590
2038-05-11T07:40:42.26385737   -55723655.363734  -126264099.223288   -56017003.984951  27.7614615 -10.1955667  -4.5058179     0.000002237760     0.000005070970     0.000002249736
2038-05-14T16:56:01.10050769   -47511835.095855  -129027874.361770   -57238052.656353  28.3680663  -8.6953463  -3.8402749     0.000001908465     0.000005183320     0.000002299376
2038-05-18T02:11:19.93715785   -39136761.207946  -131348255.227410   -58262406.930373  28.8773217  -7.1648850  -3.1613754     0.000001572364     0.000005277667     0.000002341028
2038-05-21T11:26:38.77380817   -30627184.399769  -133217171.864443   -59086504.039175  29.2874112  -5.6095026  -2.4714792     0.000001230654     0.000005353657     0.000002374539
2038-05-24T20:41:57.61045848   -22012335.319453  -134628123.258640   -59707477.162660  29.5968724  -4.0346117  -1.7729871     0.000000884555     0.000005411007     0.000002399781
2038-05-28T05:26:10.86359129   -13377421.793840  -135571632.019804   -60121169.995528  29.8036012  -2.4558645  -1.0728406     0.000000537540     0.000005449317     0.000002416581
2038-05-31T14:10:24.11672426    -4697110.523059  -136054918.125736   -60330770.257688  29.9091654  -0.8687056  -0.3690190     0.000000188641     0.000005468871     0.000002425063
2038-06-03T22:54:37.36985707     3999132.612169  -136076330.623861   -60335561.833438  29.9131967   0.7214018   0.3360550    -0.000000160907     0.000005469599     0.000002425196
2038-06-07T07:38:50.62298988    12681786.386887  -135635807.392109   -60135533.143916  29.8156859   2.3089837   1.0399544    -0.000000509869     0.000005451499     0.000002416982
2038-06-10T15:55:18.51819904    21272055.618345  -134741345.800597   -59734272.930440  29.6184088   3.8795588   1.7362587    -0.000000855028     0.000005414906     0.000002400569
2038-06-14T00:11:46.41340805    29790938.957096  -133394791.684593   -59132588.304959  29.3217903   5.4368952   2.4266392    -0.000001197181     0.000005359907     0.000002375997
2038-06-17T08:28:14.30861722    38209870.361108  -131600737.295426   -58332530.977542  28.9268717   6.9757014   3.1087499    -0.000001535136     0.000005286704     0.000002343355
2038-06-20T16:44:42.20382623    46500633.590960  -129365293.634041   -57336825.900841  28.4350367   8.4907546   3.7802759    -0.000001867717     0.000005195570     0.000002302765
2038-06-24T01:06:35.01230351    54644509.905737  -126692827.837158   -56147419.642450  27.8472927   9.9785725   4.4396735    -0.000002194132     0.000005086707     0.000002254318
2038-06-27T09:28:27.82078063    62604786.675298  -123594715.066843   -54769375.940615  27.1661959  11.4323916   5.0839452    -0.000002512873     0.000004960611     0.000002198232
2038-06-30T17:50:20.62925791    70354792.696673  -120081506.979665   -53207387.951789  26.3941264  12.8472914   5.7109103    -0.000002822840     0.000004817743     0.000002134715
